{
    "links": {
        "self": "http://www.neowsapp.com/rest/v1/neo/3989414?api_key=iIulBulltgU6a56xZRHN4H3l9WmuAYTsLGpBGhQ2"
    },
    "id": "3989414",
    "neo_reference_id": "3989414",
    "name": "(2020 CR)",
    "designation": "2020 CR",
    "nasa_jpl_url": "http://ssd.jpl.nasa.gov/sbdb.cgi?sstr=3989414",
    "absolute_magnitude_h": 27.225,
    "estimated_diameter": {
        "kilometers": {
            "estimated_diameter_min": 0.009540145,
            "estimated_diameter_max": 0.0213324128
        },
        "meters": {
            "estimated_diameter_min": 9.5401450229,
            "estimated_diameter_max": 21.3324127863
        },
        "miles": {
            "estimated_diameter_min": 0.0059279695,
            "estimated_diameter_max": 0.0132553427
        },
        "feet": {
            "estimated_diameter_min": 31.2996893968,
            "estimated_diameter_max": 69.9882331659
        }
    },
    "is_potentially_hazardous_asteroid": false,
    "close_approach_data": [
        {
            "close_approach_date": "2020-02-04",
            "close_approach_date_full": "2020-Feb-04 20:36",
            "epoch_date_close_approach": 1580848560000,
            "relative_velocity": {
                "kilometers_per_second": "23.2077907074",
                "kilometers_per_hour": "83548.046546753",
                "miles_per_hour": "51913.5070334533"
            },
            "miss_distance": {
                "astronomical": "0.0076460142",
                "lunar": "2.9742995238",
                "kilometers": "1143827.438309754",
                "miles": "710741.4126484452"
            },
            "orbiting_body": "Moon"
        },
        {
            "close_approach_date": "2020-02-04",
            "close_approach_date_full": "2020-Feb-04 22:51",
            "epoch_date_close_approach": 1580856660000,
            "relative_velocity": {
                "kilometers_per_second": "22.3776468825",
                "kilometers_per_hour": "80559.5287768981",
                "miles_per_hour": "50056.5583114009"
            },
            "miss_distance": {
                "astronomical": "0.0066249636",
                "lunar": "2.5771108404",
                "kilometers": "991080.443387532",
                "miles": "615828.8311586616"
            },
            "orbiting_body": "Earth"
        }
    ],
    "orbital_data": {
        "orbit_id": "4",
        "orbit_determination_date": "2020-08-22 06:32:31",
        "first_observation_date": "2020-01-30",
        "last_observation_date": "2020-02-04",
        "data_arc_in_days": 5,
        "observations_used": 33,
        "orbit_uncertainty": "8",
        "minimum_orbit_intersection": ".00625977",
        "jupiter_tisserand_invariant": "3.263",
        "epoch_osculation": "2458880.5",
        "eccentricity": ".7370077660647454",
        "semi_major_axis": "2.178093583423926",
        "inclination": "2.304606696124313",
        "ascending_node_longitude": "126.4117438762946",
        "orbital_period": "1174.122012444345",
        "perihelion_distance": ".5728216972247022",
        "perihelion_argument": "98.328890470872",
        "aphelion_distance": "3.78336546962315",
        "perihelion_time": "2458929.350424169309",
        "mean_anomaly": "345.0218695207498",
        "mean_motion": ".3066120864649615",
        "equinox": "J2000",
        "orbit_class": {
            "orbit_class_type": "APO",
            "orbit_class_description": "Near-Earth asteroid orbits which cross the Earth’s orbit similar to that of 1862 Apollo",
            "orbit_class_range": "a (semi-major axis) > 1.0 AU; q (perihelion) < 1.017 AU"
        }
    },
    "is_sentry_object": false
}